IRIDIUM 144             
1 43249U 18030A   23303.16925322  .00000449  00000+0  15326-3 0  9991
2 43249  86.3963 332.0715 0002286  96.9745 263.1710 14.34218877292411
IRIDIUM 149             
1 43250U 18030B   23302.61743518  .00000460  00000+0  15729-3 0  9997
2 43250  86.3961 332.2798 0002320 100.3885 259.7572 14.34215695292331
IRIDIUM 157             
1 43251U 18030C   23303.47369739  .00000408  00000+0  13848-3 0  9994
2 43251  86.3963 331.9537 0002202  87.6519 272.4929 14.34218920292434
IRIDIUM 140             
1 43252U 18030D   23302.79503968  .00000436  00000+0  14871-3 0  9991
2 43252  86.3965 332.2522 0002050 100.6683 259.4744 14.34219322292396
IRIDIUM 145             
1 43253U 18030E   23302.64282063  .00000458  00000+0  15657-3 0  9993
2 43253  86.3964 332.2902 0002460 100.5678 259.5795 14.34218553292309
IRIDIUM 146             
1 43254U 18030F   23302.62378750  .00000389  00000+0  13166-3 0  9997
2 43254  86.3965 332.3136 0002496  98.0122 262.1357 14.34218141292313
IRIDIUM 148             
1 43255U 18030G   23302.80138207  .00000474  00000+0  16203-3 0  9999
2 43255  86.3965 332.2682 0002546  94.0190 266.1297 14.34219694292373
IRIDIUM 142             
1 43256U 18030H   23303.53712026  .00000448  00000+0  15291-3 0  9995
2 43256  86.3960 331.8844 0002385  94.1427 266.0042 14.34220480292449
